[{"OBJECT_NAME":"TEVEL2-3","OBJECT_ID":"2025-052J","EPOCH":"2026-04-27T06:16:10.151904","MEAN_MOTION":15.32207959,"ECCENTRICITY":0.00015554,"INCLINATION":97.3942,"RA_OF_ASC_NODE":13.2684,"ARG_OF_PERICENTER":2.2746,"MEAN_ANOMALY":357.8503,"EPHEMERIS_TYPE":0,"CLASSIFICATION_TYPE":"U","NORAD_CAT_ID":63218,"ELEMENT_SET_NO":999,"REV_AT_EPOCH":6229,"BSTAR":0.00073372116,"MEAN_MOTION_DOT":0.00022781,"MEAN_MOTION_DDOT":0},{"OBJECT_NAME":"TEVEL2-2","OBJECT_ID":"2025-052K","EPOCH":"2026-04-27T06:22:16.499136","MEAN_MOTION":15.32169388,"ECCENTRICITY":0.00016943,"INCLINATION":97.3937,"RA_OF_ASC_NODE":13.2585,"ARG_OF_PERICENTER":359.1819,"MEAN_ANOMALY":0.942,"EPHEMERIS_TYPE":0,"CLASSIFICATION_TYPE":"U","NORAD_CAT_ID":63219,"ELEMENT_SET_NO":999,"REV_AT_EPOCH":6229,"BSTAR":0.00076094608,"MEAN_MOTION_DOT":0.00023604,"MEAN_MOTION_DDOT":0},{"OBJECT_NAME":"TEVEL2-9","OBJECT_ID":"2025-052AD","EPOCH":"2026-04-27T04:18:32.705280","MEAN_MOTION":15.30327401,"ECCENTRICITY":0.00052311,"INCLINATION":97.4001,"RA_OF_ASC_NODE":12.652,"ARG_OF_PERICENTER":342.2767,"MEAN_ANOMALY":17.829,"EPHEMERIS_TYPE":0,"CLASSIFICATION_TYPE":"U","NORAD_CAT_ID":63237,"ELEMENT_SET_NO":999,"REV_AT_EPOCH":6222,"BSTAR":0.00073182035,"MEAN_MOTION_DOT":0.00021436,"MEAN_MOTION_DDOT":0},{"OBJECT_NAME":"TEVEL2-7","OBJECT_ID":"2025-052AE","EPOCH":"2026-04-27T05:04:20.096544","MEAN_MOTION":15.30072047,"ECCENTRICITY":0.00053089,"INCLINATION":97.4001,"RA_OF_ASC_NODE":12.6198,"ARG_OF_PERICENTER":342.2193,"MEAN_ANOMALY":17.8861,"EPHEMERIS_TYPE":0,"CLASSIFICATION_TYPE":"U","NORAD_CAT_ID":63238,"ELEMENT_SET_NO":999,"REV_AT_EPOCH":6222,"BSTAR":0.00070252535,"MEAN_MOTION_DOT":0.00020411,"MEAN_MOTION_DDOT":0},{"OBJECT_NAME":"TEVEL2-8","OBJECT_ID":"2025-052AF","EPOCH":"2026-04-27T05:15:23.143104","MEAN_MOTION":15.30053732,"ECCENTRICITY":0.00053318,"INCLINATION":97.4003,"RA_OF_ASC_NODE":12.606,"ARG_OF_PERICENTER":343.3909,"MEAN_ANOMALY":16.7156,"EPHEMERIS_TYPE":0,"CLASSIFICATION_TYPE":"U","NORAD_CAT_ID":63239,"ELEMENT_SET_NO":999,"REV_AT_EPOCH":6222,"BSTAR":0.00069930256,"MEAN_MOTION_DOT":0.00020305,"MEAN_MOTION_DDOT":0},{"OBJECT_NAME":"HADES-ICM","OBJECT_ID":"2025-052BN","EPOCH":"2026-04-26T16:29:25.837440","MEAN_MOTION":15.77342185,"ECCENTRICITY":0.00035022,"INCLINATION":97.3831,"RA_OF_ASC_NODE":19.519,"ARG_OF_PERICENTER":134.0397,"MEAN_ANOMALY":226.1158,"EPHEMERIS_TYPE":0,"CLASSIFICATION_TYPE":"U","NORAD_CAT_ID":63492,"ELEMENT_SET_NO":999,"REV_AT_EPOCH":6265,"BSTAR":0.0023247374,"MEAN_MOTION_DOT":0.00399074,"MEAN_MOTION_DDOT":0},{"OBJECT_NAME":"INNOSAT 16 (RS92S7)","OBJECT_ID":"2025-155C","EPOCH":"2026-04-27T06:52:38.985312","MEAN_MOTION":15.24877637,"ECCENTRICITY":0.00109399,"INCLINATION":97.4526,"RA_OF_ASC_NODE":84.6111,"ARG_OF_PERICENTER":16.281,"MEAN_ANOMALY":343.8777,"EPHEMERIS_TYPE":0,"CLASSIFICATION_TYPE":"U","NORAD_CAT_ID":64878,"ELEMENT_SET_NO":999,"REV_AT_EPOCH":7291,"BSTAR":0.00031614388,"MEAN_MOTION_DOT":7.802e-5,"MEAN_MOTION_DDOT":0},{"OBJECT_NAME":"GEOSCAN 6 (RS92S6)","OBJECT_ID":"2025-155D","EPOCH":"2026-04-27T06:53:53.202912","MEAN_MOTION":15.29146027,"ECCENTRICITY":0.00080552,"INCLINATION":97.452,"RA_OF_ASC_NODE":85.693,"ARG_OF_PERICENTER":14.5282,"MEAN_ANOMALY":345.6188,"EPHEMERIS_TYPE":0,"CLASSIFICATION_TYPE":"U","NORAD_CAT_ID":64879,"ELEMENT_SET_NO":999,"REV_AT_EPOCH":7298,"BSTAR":0.0004907468,"MEAN_MOTION_DOT":0.0001383,"MEAN_MOTION_DDOT":0},{"OBJECT_NAME":"GEOSCAN 1 (RS92S1)","OBJECT_ID":"2025-155E","EPOCH":"2026-04-27T05:49:45.111072","MEAN_MOTION":15.29658571,"ECCENTRICITY":0.00079896,"INCLINATION":97.4518,"RA_OF_ASC_NODE":85.7554,"ARG_OF_PERICENTER":15.2573,"MEAN_ANOMALY":344.8906,"EPHEMERIS_TYPE":0,"CLASSIFICATION_TYPE":"U","NORAD_CAT_ID":64880,"ELEMENT_SET_NO":999,"REV_AT_EPOCH":7298,"BSTAR":0.00053141867,"MEAN_MOTION_DOT":0.00015223,"MEAN_MOTION_DDOT":0},{"OBJECT_NAME":"239ALFEROV (RS61S)","OBJECT_ID":"2025-155F","EPOCH":"2026-04-27T06:42:58.993344","MEAN_MOTION":15.31526647,"ECCENTRICITY":0.000754,"INCLINATION":97.452,"RA_OF_ASC_NODE":86.1952,"ARG_OF_PERICENTER":16.4087,"MEAN_ANOMALY":343.7397,"EPHEMERIS_TYPE":0,"CLASSIFICATION_TYPE":"U","NORAD_CAT_ID":64881,"ELEMENT_SET_NO":999,"REV_AT_EPOCH":7301,"BSTAR":0.00061369297,"MEAN_MOTION_DOT":0.00018645,"MEAN_MOTION_DDOT":0},{"OBJECT_NAME":"GEOSCAN 2 (RS92S2)","OBJECT_ID":"2025-155Q","EPOCH":"2026-04-27T05:53:57.142464","MEAN_MOTION":15.29947939,"ECCENTRICITY":0.00068283,"INCLINATION":97.4517,"RA_OF_ASC_NODE":85.89,"ARG_OF_PERICENTER":3.8094,"MEAN_ANOMALY":356.3197,"EPHEMERIS_TYPE":0,"CLASSIFICATION_TYPE":"U","NORAD_CAT_ID":64890,"ELEMENT_SET_NO":999,"REV_AT_EPOCH":7299,"BSTAR":0.00051690288,"MEAN_MOTION_DOT":0.00014933,"MEAN_MOTION_DDOT":0},{"OBJECT_NAME":"GEOSCAN 5 (RS92S5)","OBJECT_ID":"2025-155R","EPOCH":"2026-04-27T06:42:29.363328","MEAN_MOTION":15.31853712,"ECCENTRICITY":0.00067521,"INCLINATION":97.4512,"RA_OF_ASC_NODE":86.3127,"ARG_OF_PERICENTER":25.3601,"MEAN_ANOMALY":334.7971,"EPHEMERIS_TYPE":0,"CLASSIFICATION_TYPE":"U","NORAD_CAT_ID":64891,"ELEMENT_SET_NO":999,"REV_AT_EPOCH":7302,"BSTAR":0.00061953209,"MEAN_MOTION_DOT":0.00019014,"MEAN_MOTION_DDOT":0},{"OBJECT_NAME":"GEOSCAN 4 (RS92S4)","OBJECT_ID":"2025-155S","EPOCH":"2026-04-27T06:26:20.339808","MEAN_MOTION":15.31979438,"ECCENTRICITY":0.00067832,"INCLINATION":97.4516,"RA_OF_ASC_NODE":86.3366,"ARG_OF_PERICENTER":25.5923,"MEAN_ANOMALY":334.5653,"EPHEMERIS_TYPE":0,"CLASSIFICATION_TYPE":"U","NORAD_CAT_ID":64892,"ELEMENT_SET_NO":999,"REV_AT_EPOCH":7302,"BSTAR":0.00063170938,"MEAN_MOTION_DOT":0.00019467,"MEAN_MOTION_DDOT":0},{"OBJECT_NAME":"GEOSCAN 3 (RS92S3)","OBJECT_ID":"2025-155T","EPOCH":"2026-04-27T06:20:18.102624","MEAN_MOTION":15.33632888,"ECCENTRICITY":0.00065606,"INCLINATION":97.4505,"RA_OF_ASC_NODE":86.628,"ARG_OF_PERICENTER":29.3074,"MEAN_ANOMALY":330.8535,"EPHEMERIS_TYPE":0,"CLASSIFICATION_TYPE":"U","NORAD_CAT_ID":64893,"ELEMENT_SET_NO":999,"REV_AT_EPOCH":7304,"BSTAR":0.00071748196,"MEAN_MOTION_DOT":0.00023309,"MEAN_MOTION_DDOT":0},{"OBJECT_NAME":"INNOSAT 3 (RS92S0)","OBJECT_ID":"2025-155U","EPOCH":"2026-04-27T05:48:56.167200","MEAN_MOTION":15.40293594,"ECCENTRICITY":0.0005973,"INCLINATION":97.4467,"RA_OF_ASC_NODE":87.6686,"ARG_OF_PERICENTER":38.2588,"MEAN_ANOMALY":321.908,"EPHEMERIS_TYPE":0,"CLASSIFICATION_TYPE":"U","NORAD_CAT_ID":64894,"ELEMENT_SET_NO":999,"REV_AT_EPOCH":7311,"BSTAR":0.0011031462,"MEAN_MOTION_DOT":0.00044581,"MEAN_MOTION_DDOT":0},{"OBJECT_NAME":"KNACKSAT-2","OBJECT_ID":"1998-067XZ","EPOCH":"2026-04-26T06:09:00.396576","MEAN_MOTION":15.5563873,"ECCENTRICITY":0.00123624,"INCLINATION":51.6294,"RA_OF_ASC_NODE":194.7914,"ARG_OF_PERICENTER":5.5713,"MEAN_ANOMALY":354.5413,"EPHEMERIS_TYPE":0,"CLASSIFICATION_TYPE":"U","NORAD_CAT_ID":67683,"ELEMENT_SET_NO":999,"REV_AT_EPOCH":1218,"BSTAR":0.00063921905,"MEAN_MOTION_DOT":0.00044626,"MEAN_MOTION_DDOT":0}]
