TEVEL2-3                
1 63218U 25052J   26117.26122861  .00022781  00000+0  73372-3 0  9993
2 63218  97.3942  13.2684 0001555   2.2746 357.8503 15.32207959 62290
TEVEL2-2                
1 63219U 25052K   26117.26546874  .00023604  00000+0  76095-3 0  9998
2 63219  97.3937  13.2585 0001694 359.1819   0.9420 15.32169388 62291
TEVEL2-9                
1 63237U 25052AD  26117.17954520  .00021436  00000+0  73182-3 0  9994
2 63237  97.4001  12.6520 0005231 342.2767  17.8290 15.30327401 62227
TEVEL2-7                
1 63238U 25052AE  26117.21134371  .00020411  00000+0  70253-3 0  9992
2 63238  97.4001  12.6198 0005308 342.2193  17.8861 15.30072047 62224
TEVEL2-8                
1 63239U 25052AF  26117.21901786  .00020305  00000+0  69930-3 0  9997
2 63239  97.4003  12.6060 0005331 343.3909  16.7156 15.30053732 62223
HADES-ICM               
1 63492U 25052BN  26116.68710460  .00399074  00000+0  23247-2 0  9997
2 63492  97.3831  19.5190 0003502 134.0397 226.1158 15.77342185 62656
INNOSAT 16 (RS92S7)     
1 64878U 25155C   26117.28656233  .00007802  00000+0  31614-3 0  9997
2 64878  97.4526  84.6111 0010939  16.2810 343.8777 15.24877637 72917
GEOSCAN 6 (RS92S6)      
1 64879U 25155D   26117.28742133  .00013830  00000+0  49075-3 0  9991
2 64879  97.4520  85.6930 0008055  14.5282 345.6188 15.29146027 72982
GEOSCAN 1 (RS92S1)      
1 64880U 25155E   26117.24288323  .00015223  00000+0  53142-3 0  9993
2 64880  97.4518  85.7554 0007989  15.2573 344.8906 15.29658571 72981
239ALFEROV (RS61S)      
1 64881U 25155F   26117.27984946  .00018645  00000+0  61369-3 0  9992
2 64881  97.4520  86.1952 0007540  16.4087 343.7397 15.31526647 73016
GEOSCAN 2 (RS92S2)      
1 64890U 25155Q   26117.24580026  .00014933  00000+0  51690-3 0  9992
2 64890  97.4517  85.8900 0006828   3.8094 356.3197 15.29947939 72999
GEOSCAN 5 (RS92S5)      
1 64891U 25155R   26117.27950652  .00019014  00000+0  61953-3 0  9990
2 64891  97.4512  86.3127 0006752  25.3601 334.7971 15.31853712 73024
GEOSCAN 4 (RS92S4)      
1 64892U 25155S   26117.26829097  .00019467  00000+0  63171-3 0  9994
2 64892  97.4516  86.3366 0006783  25.5923 334.5653 15.31979438 73026
GEOSCAN 3 (RS92S3)      
1 64893U 25155T   26117.26409841  .00023309  00000+0  71748-3 0  9995
2 64893  97.4505  86.6280 0006560  29.3074 330.8535 15.33632888 73042
INNOSAT 3 (RS92S0)      
1 64894U 25155U   26117.24231675  .00044581  00000+0  11031-2 0  9995
2 64894  97.4467  87.6686 0005973  38.2588 321.9080 15.40293594 73116
KNACKSAT-2              
1 67683U 98067XZ  26116.25625459  .00044626  00000+0  63922-3 0  9990
2 67683  51.6294 194.7914 0012362   5.5713 354.5413 15.55638730 12189
